SES-2                   
1 37809U 11049A   26061.57087259 -.00000213  00000+0  00000+0 0  9995
2 37809   0.0316  76.6744 0002964 261.0972 301.0674  1.00272732 52890
QUETZSAT 1              
1 37826U 11054A   26061.57277927 -.00000259  00000+0  00000+0 0  9993
2 37826   0.0570 287.6987 0002708  66.1546 295.6830  1.00271593 48803
SES-4                   
1 38087U 12007A   26061.36985276 -.00000186  00000+0  00000+0 0  9991
2 38087   0.0330  62.3198 0002206 290.0932 278.8803  1.00270118 51156
SES-5                   
1 38652U 12036A   26061.39350299  .00000016  00000+0  00000+0 0  9996
2 38652   0.0626 307.8056 0001918  23.5348 335.4588  1.00272505 43389
ASTRA 2F                
1 38778U 12051A   26061.73635463  .00000133  00000+0  00000+0 0  9999
2 38778   0.0768 259.2765 0002715  14.8992 179.5896  1.00273286 40064
SES-6                   
1 39172U 13026A   26061.72257455 -.00000278  00000+0  00000+0 0  9992
2 39172   0.0697 286.9218 0001855  55.2279  37.9463  1.00272390 46658
O3B FM5                 
1 39188U 13031A   26061.49848137 -.00000029  00000+0  00000+0 0  9996
2 39188   0.0973  14.6047 0003345 317.9320  27.4383  5.00116428231709
O3B FM4                 
1 39189U 13031B   26061.61762870 -.00000029  00000+0  00000+0 0  9990
2 39189   0.0556 345.1632 0005035   4.6281  10.1911  5.00115210231718
O3B FM2                 
1 39190U 13031C   26061.68331660 -.00000029  00000+0  00000+0 0  9998
2 39190   0.0567 339.0902 0002843 359.6148  21.2758  5.00115954231787
O3B PFM                 
1 39191U 13031D   26061.49753733 -.00000029  00000+0  00000+0 0  9997
2 39191   0.0664   7.8005 0005128 348.3585   3.8297  5.00116022231331
ASTRA 2E                
1 39285U 13056A   26061.73644128  .00000134  00000+0  00000+0 0  9998
2 39285   0.0672  27.3430 0002200 307.1895 119.5608  1.00271256 45351
SES-8                   
1 39460U 13071A   26061.61318672 -.00000285  00000+0  00000+0 0  9997
2 39460   0.0622 272.7609 0001676  99.9747 103.3736  1.00267709 43374
ASTRA 5B                
1 39617U 14011B   26061.73540129  .00000120  00000+0  00000+0 0  9990
2 39617   0.0946 297.1233 0004235  25.8038 125.8034  1.00269973 43607
O3B FM3                 
1 40079U 14038A   26061.56415968 -.00000029  00000+0  00000+0 0  9995
2 40079   0.0530 353.4641 0000424  42.5092 324.0222  5.00115569207712
O3B FM7                 
1 40080U 14038B   26061.31035470 -.00000029  00000+0  00000+0 0  9996
2 40080   0.0588 348.9474 0004489 339.4059  31.6123  5.00115622212533
O3B FM6                 
1 40081U 14038C   26059.33845883 -.00000028  00000+0  00000+0 0  9992
2 40081   0.0550 351.2998 0002672 345.9055  22.7755  5.00115665212383
O3B FM8                 
1 40082U 14038D   26061.59057436 -.00000029  00000+0  00000+0 0  9994
2 40082   0.0559 350.6699 0002656 352.9924  16.3217  5.00115942212615
